start=new Date('2021-12-28T00:00:00.000Z').valueOf();
sats=[{"TLE_LINE2":"2 45536  53.0537 147.7807 0002098  97.1615 262.9612 15.06403100 94056","MEAN_MOTION_DOT":"0.00000700","SITE":"AFETR","ELEMENT_SET_NO":"999","PERIOD":"95.592","CLASSIFICATION_TYPE":"U","GP_ID":"192602784","LAUNCH_DATE":"2020-04-22","FILE":"3253114","REF_FRAME":"TEME","MEAN_ELEMENT_THEORY":"SGP4","DECAY_DATE":null,"EPHEMERIS_TYPE":"0","APOAPSIS":"548.657","INCLINATION":"53.0537","CENTER_NAME":"EARTH","COUNTRY_CODE":"US","RA_OF_ASC_NODE":"147.7807","TLE_LINE1":"1 45536U 20025F   21361.85548215  .00000700  00000-0  65927-4 0  9993","REV_AT_EPOCH":"9405","MEAN_MOTION":"15.06403100","OBJECT_ID":"2020-025F","OBJECT_NAME":"STARLINK-1352","MEAN_MOTION_DDOT":"0.0000000000000","ARG_OF_PERICENTER":"97.1615","TIME_SYSTEM":"UTC","BSTAR":"0.00006592700000","ECCENTRICITY":"0.00020980","RCS_SIZE":"LARGE","PERIAPSIS":"545.751","OBJECT_TYPE":"PAYLOAD","EPOCH":"2021-12-27T20:31:53.657760","NORAD_CAT_ID":"45536","SEMIMAJOR_AXIS":"6925.339","MEAN_ANOMALY":"262.9612"},{"DECAY_DATE":null,"MEAN_ELEMENT_THEORY":"SGP4","REF_FRAME":"TEME","FILE":"3253114","LAUNCH_DATE":"2020-04-22","GP_ID":"192602531","PERIOD":"94.974","CLASSIFICATION_TYPE":"U","SITE":"AFETR","ELEMENT_SET_NO":"999","MEAN_MOTION_DOT":"0.00021181","TLE_LINE2":"2 45537  52.9999 118.8786 0001588 158.7713 201.3346 15.16203425 94441","SEMIMAJOR_AXIS":"6895.464","MEAN_ANOMALY":"201.3346","NORAD_CAT_ID":"45537","EPOCH":"2021-12-27T20:25:30.746784","OBJECT_TYPE":"PAYLOAD","PERIAPSIS":"516.234","RCS_SIZE":"LARGE","ECCENTRICITY":"0.00015880","BSTAR":"0.00109600000000","TIME_SYSTEM":"UTC","ARG_OF_PERICENTER":"158.7713","MEAN_MOTION_DDOT":"0.0000000000000","OBJECT_NAME":"STARLINK-1353","MEAN_MOTION":"15.16203425","OBJECT_ID":"2020-025G","REV_AT_EPOCH":"9444","TLE_LINE1":"1 45537U 20025G   21361.85105031  .00021181  00000-0  10960-2 0  9990","RA_OF_ASC_NODE":"118.8786","CENTER_NAME":"EARTH","COUNTRY_CODE":"US","INCLINATION":"52.9999","EPHEMERIS_TYPE":"0","APOAPSIS":"518.424"},{"FILE":"3253114","REF_FRAME":"TEME","DECAY_DATE":null,"MEAN_ELEMENT_THEORY":"SGP4","TLE_LINE2":"2 45538  53.0542 147.9601 0001932  98.9667 261.1540 15.06401123 94054","MEAN_MOTION_DOT":"-0.00000178","ELEMENT_SET_NO":"999","SITE":"AFETR","CLASSIFICATION_TYPE":"U","PERIOD":"95.592","GP_ID":"192601788","LAUNCH_DATE":"2020-04-22","ARG_OF_PERICENTER":"98.9667","MEAN_MOTION_DDOT":"0.0000000000000","TIME_SYSTEM":"UTC","BSTAR":"0.00000694140000","ECCENTRICITY":"0.00019320","RCS_SIZE":"LARGE","OBJECT_TYPE":"PAYLOAD","PERIAPSIS":"545.872","EPOCH":"2021-12-27T19:33:30.628512","SEMIMAJOR_AXIS":"6925.345","MEAN_ANOMALY":"261.1540","NORAD_CAT_ID":"45538","EPHEMERIS_TYPE":"0","APOAPSIS":"548.548","INCLINATION":"53.0542","COUNTRY_CODE":"US","CENTER_NAME":"EARTH","TLE_LINE1":"1 45538U 20025H   21361.81493783 -.00000178  00000-0  69414-5 0  9996","REV_AT_EPOCH":"9405","RA_OF_ASC_NODE":"147.9601","OBJECT_ID":"2020-025H","MEAN_MOTION":"15.06401123","OBJECT_NAME":"STARLINK-1362"},{"FILE":"3253114","MEAN_ELEMENT_THEORY":"SGP4","DECAY_DATE":null,"REF_FRAME":"TEME","GP_ID":"192602036","LAUNCH_DATE":"2020-04-22","TLE_LINE2":"2 45539  53.0519  33.6292 0003924  14.3723 345.7408 15.76732761 95611","MEAN_MOTION_DOT":"-0.00004274","ELEMENT_SET_NO":"999","SITE":"AFETR","PERIOD":"91.328","CLASSIFICATION_TYPE":"U","PERIAPSIS":"337.071","OBJECT_TYPE":"PAYLOAD","EPOCH":"2021-12-27T14:07:04.853568","SEMIMAJOR_AXIS":"6717.842","NORAD_CAT_ID":"45539","MEAN_ANOMALY":"345.7408","ARG_OF_PERICENTER":"14.3723","MEAN_MOTION_DDOT":"0.0000000000000","BSTAR":"-0.00002207200000","TIME_SYSTEM":"UTC","RCS_SIZE":"LARGE","ECCENTRICITY":"0.00039240","MEAN_MOTION":"15.76732761","OBJECT_ID":"2020-025J","OBJECT_NAME":"STARLINK-1367","APOAPSIS":"342.343","EPHEMERIS_TYPE":"0","COUNTRY_CODE":"US","CENTER_NAME":"EARTH","INCLINATION":"53.0519","RA_OF_ASC_NODE":"33.6292","TLE_LINE1":"1 45539U 20025J   21361.58825062 -.00004274  00000-0 -22072-4 0  9990","REV_AT_EPOCH":"9561"},{"GP_ID":"192602284","LAUNCH_DATE":"2020-04-22","TLE_LINE2":"2 45540  53.0527 148.3593 0002049  98.6105 261.5116 15.06386990 94034","MEAN_MOTION_DOT":"-0.00000799","SITE":"AFETR","ELEMENT_SET_NO":"999","PERIOD":"95.593","CLASSIFICATION_TYPE":"U","FILE":"3253114","REF_FRAME":"TEME","MEAN_ELEMENT_THEORY":"SGP4","DECAY_DATE":null,"OBJECT_ID":"2020-025K","MEAN_MOTION":"15.06386990","OBJECT_NAME":"STARLINK-1368","APOAPSIS":"548.672","EPHEMERIS_TYPE":"0","INCLINATION":"53.0527","CENTER_NAME":"EARTH","COUNTRY_CODE":"US","TLE_LINE1":"1 45540U 20025K   21361.72649679 -.00000799  00000-0 -34744-4 0  9993","REV_AT_EPOCH":"9403","RA_OF_ASC_NODE":"148.3593","PERIAPSIS":"545.834","OBJECT_TYPE":"PAYLOAD","EPOCH":"2021-12-27T17:26:09.322656","SEMIMAJOR_AXIS":"6925.388","MEAN_ANOMALY":"261.5116","NORAD_CAT_ID":"45540","ARG_OF_PERICENTER":"98.6105","MEAN_MOTION_DDOT":"0.0000000000000","BSTAR":"-0.00003474400000","TIME_SYSTEM":"UTC","ECCENTRICITY":"0.00020490","RCS_SIZE":"LARGE"},{"OBJECT_ID":"2020-025L","MEAN_MOTION":"15.06394301","OBJECT_NAME":"STARLINK-1369","APOAPSIS":"548.404","EPHEMERIS_TYPE":"0","INCLINATION":"53.0532","CENTER_NAME":"EARTH","COUNTRY_CODE":"US","TLE_LINE1":"1 45541U 20025L   21361.86286482  .00000607  00000-0  59662-4 0  9990","REV_AT_EPOCH":"9405","RA_OF_ASC_NODE":"147.7439","PERIAPSIS":"546.058","OBJECT_TYPE":"PAYLOAD","EPOCH":"2021-12-27T20:42:31.520448","SEMIMAJOR_AXIS":"6925.366","MEAN_ANOMALY":"274.5347","NORAD_CAT_ID":"45541","MEAN_MOTION_DDOT":"0.0000000000000","ARG_OF_PERICENTER":"85.5835","BSTAR":"0.00005966200000","TIME_SYSTEM":"UTC","ECCENTRICITY":"0.00016940","RCS_SIZE":"LARGE","GP_ID":"192603032","LAUNCH_DATE":"2020-04-22","TLE_LINE2":"2 45541  53.0532 147.7439 0001694  85.5835 274.5347 15.06394301 94050","MEAN_MOTION_DOT":"0.00000607","SITE":"AFETR","ELEMENT_SET_NO":"999","CLASSIFICATION_TYPE":"U","PERIOD":"95.593","FILE":"3253114","REF_FRAME":"TEME","MEAN_ELEMENT_THEORY":"SGP4","DECAY_DATE":null},{"REF_FRAME":"TEME","DECAY_DATE":null,"MEAN_ELEMENT_THEORY":"SGP4","FILE":"3253114","MEAN_MOTION_DOT":"0.00000168","TLE_LINE2":"2 45542  53.0540 148.4930 0002049 102.6268 257.4950 15.06391152 94039","PERIOD":"95.593","CLASSIFICATION_TYPE":"U","ELEMENT_SET_NO":"999","SITE":"AFETR","GP_ID":"192601288","LAUNCH_DATE":"2020-04-22","ARG_OF_PERICENTER":"102.6268","MEAN_MOTION_DDOT":"0.0000000000000","ECCENTRICITY":"0.00020490","RCS_SIZE":"LARGE","TIME_SYSTEM":"UTC","BSTAR":"0.00003019300000","EPOCH":"2021-12-27T16:43:39.976608","PERIAPSIS":"545.822","OBJECT_TYPE":"PAYLOAD","NORAD_CAT_ID":"45542","SEMIMAJOR_AXIS":"6925.376","MEAN_ANOMALY":"257.4950","INCLINATION":"53.0540","CENTER_NAME":"EARTH","COUNTRY_CODE":"US","EPHEMERIS_TYPE":"0","APOAPSIS":"548.660","REV_AT_EPOCH":"9403","TLE_LINE1":"1 45542U 20025M   21361.69699047  .00000168  00000-0  30193-4 0  9997","RA_OF_ASC_NODE":"148.4930","OBJECT_ID":"2020-025M","MEAN_MOTION":"15.06391152","OBJECT_NAME":"STARLINK-1371"},{"REF_FRAME":"TEME","DECAY_DATE":null,"MEAN_ELEMENT_THEORY":"SGP4","FILE":"3253114","GP_ID":"192601536","LAUNCH_DATE":"2020-04-22","MEAN_MOTION_DOT":"0.00001781","TLE_LINE2":"2 45543  53.0560 148.0191 0002409  90.0881 270.0384 15.06401968 93148","PERIOD":"95.592","CLASSIFICATION_TYPE":"U","SITE":"AFETR","ELEMENT_SET_NO":"999","EPOCH":"2021-12-27T19:12:17.050176","OBJECT_TYPE":"PAYLOAD","PERIAPSIS":"545.539","MEAN_ANOMALY":"270.0384","SEMIMAJOR_AXIS":"6925.343","NORAD_CAT_ID":"45543","ARG_OF_PERICENTER":"90.0881","MEAN_MOTION_DDOT":"0.0000000000000","ECCENTRICITY":"0.00024090","RCS_SIZE":"LARGE","TIME_SYSTEM":"UTC","BSTAR":"0.00013847000000","MEAN_MOTION":"15.06401968","OBJECT_ID":"2020-025N","OBJECT_NAME":"STARLINK-1372","INCLINATION":"53.0560","COUNTRY_CODE":"US","CENTER_NAME":"EARTH","APOAPSIS":"548.876","EPHEMERIS_TYPE":"0","RA_OF_ASC_NODE":"148.0191","TLE_LINE1":"1 45543U 20025N   21361.80019734  .00001781  00000-0  13847-3 0  9998","REV_AT_EPOCH":"9314"},{"OBJECT_NAME":"STARLINK-1373","OBJECT_ID":"2020-025P","MEAN_MOTION":"15.06395110","TLE_LINE1":"1 45544U 20025P   21361.88497390  .00000003  00000-0  19136-4 0  9999","RA_OF_ASC_NODE":"147.6535","REV_AT_EPOCH":"9406","APOAPSIS":"548.481","EPHEMERIS_TYPE":"0","CENTER_NAME":"EARTH","COUNTRY_CODE":"US","INCLINATION":"53.0539","NORAD_CAT_ID":"45544","SEMIMAJOR_AXIS":"6925.364","MEAN_ANOMALY":"263.6316","PERIAPSIS":"545.976","OBJECT_TYPE":"PAYLOAD","EPOCH":"2021-12-27T21:14:21.744960","BSTAR":"0.00001913600000","TIME_SYSTEM":"UTC","RCS_SIZE":"LARGE","ECCENTRICITY":"0.00018090","ARG_OF_PERICENTER":"96.4879","MEAN_MOTION_DDOT":"0.0000000000000","LAUNCH_DATE":"2020-04-22","GP_ID":"192602785","ELEMENT_SET_NO":"999","SITE":"AFETR","CLASSIFICATION_TYPE":"U","PERIOD":"95.592","TLE_LINE2":"2 45544  53.0539 147.6535 0001809  96.4879 263.6316 15.06395110 94068","MEAN_MOTION_DOT":"0.00000003","FILE":"3253114","DECAY_DATE":null,"MEAN_ELEMENT_THEORY":"SGP4","REF_FRAME":"TEME"},{"OBJECT_TYPE":"PAYLOAD","PERIAPSIS":"545.672","EPOCH":"2021-12-27T20:05:22.148160","MEAN_ANOMALY":"266.9535","SEMIMAJOR_AXIS":"6925.371","NORAD_CAT_ID":"45545","MEAN_MOTION_DDOT":"0.0000000000000","ARG_OF_PERICENTER":"93.1712","TIME_SYSTEM":"UTC","BSTAR":"-0.00009026300000","RCS_SIZE":"LARGE","ECCENTRICITY":"0.00022580","MEAN_MOTION":"15.06392689","OBJECT_ID":"2020-025Q","OBJECT_NAME":"STARLINK-1374","APOAPSIS":"548.800","EPHEMERIS_TYPE":"0","COUNTRY_CODE":"US","CENTER_NAME":"EARTH","INCLINATION":"53.0531","REV_AT_EPOCH":"9403","TLE_LINE1":"1 45545U 20025Q   21361.83706190 -.00001626  00000-0 -90263-4 0  9990","RA_OF_ASC_NODE":"147.8680","FILE":"3253114","MEAN_ELEMENT_THEORY":"SGP4","DECAY_DATE":null,"REF_FRAME":"TEME","GP_ID":"192602532","LAUNCH_DATE":"2020-04-22","TLE_LINE2":"2 45545  53.0531 147.8680 0002258  93.1712 266.9535 15.06392689 94037","MEAN_MOTION_DOT":"-0.00001626","SITE":"AFETR","ELEMENT_SET_NO":"999","CLASSIFICATION_TYPE":"U","PERIOD":"95.593"}];
